APPLE                   
1 12545U 81057B   24120.46636961 -.00000281  00000+0  00000+0 0  9998
2 12545   8.8209 303.5466 0026856 200.7057  26.8905  1.00054501114597
